QIANFAN-73              
1 63159U 25046A   25273.87375777  .00000237  00000+0  34862-3 0  9998
2 63159  88.9818 327.5599 0013766 342.2909  17.7761 13.50978046 37574
QIANFAN-74              
1 63160U 25046B   25270.22805291  .00000088  00000+0  11848-3 0  9998
2 63160  88.9824 327.8233 0002256 105.7462 254.3938 13.50969278 37144
QIANFAN-75              
1 63161U 25046C   25273.91900353  .00000221  00000+0  32346-3 0  9998
2 63161  88.9819 327.6762 0014922 344.8809  15.1894 13.50974902 37513
QIANFAN-76              
1 63162U 25046D   25273.84082980  .00000139  00000+0  19743-3 0  9992
2 63162  88.9821 327.6651 0012538 347.1253  12.9576 13.50974708 37510
QIANFAN-77              
1 63163U 25046E   25273.86507054  .00000737  00000+0  52776-3 0  9996
2 63163  88.9816 326.2683 0012708 313.4934  46.5185 13.96059194 38283
QIANFAN-78              
1 63164U 25046F   25270.17873922  .00000155  00000+0  22125-3 0  9997
2 63164  88.9825 327.9067 0014334 359.8558   0.2586 13.50978582 37092
QIANFAN-79              
1 63165U 25046G   25273.83660637  .00000254  00000+0  37514-3 0  9999
2 63165  88.9823 327.6350 0013603 347.1674  12.9128 13.50969920 37537
QIANFAN-80              
1 63166U 25046H   25273.85318628  .00000289  00000+0  42856-3 0  9995
2 63166  88.9820 327.3422 0012773 352.3719   7.7236 13.50970672 37692
